STAR ONE D2             
1 49055U 21069A   26166.17384541  .00000000  00000+0  00000+0 0  9993
2 49055   0.0162 337.8384 0002057 134.2817 143.8251  1.00270847 17922
EUTELSAT QUANTUM        
1 49056U 21069B   26166.19718829  .00000130  00000+0  00000+0 0  9990
2 49056   0.0104 348.0177 0002032  96.5728 297.5800  1.00272017 17903
ZHONGXING-2E            
1 49062U 21071A   26166.05322593 -.00000286  00000+0  00000+0 0  9997
2 49062   0.0381 223.7417 0001697 268.3035 248.5320  1.00270466 18011
TJS-7                   
1 49115U 21077A   26166.28660921 -.00000120  00000+0  00000+0 0  9994
2 49115   0.5030  86.1055 0001963 333.0157 208.1393  1.00269621  9536
CHINASAT 9B             
1 49125U 21080A   26166.04211558 -.00000308  00000+0  00000+0 0  9999
2 49125   0.0478  90.9287 0001385  22.6568 266.3270  1.00269547 17629
SHIJIAN-21 (SJ-21)      
1 49330U 21094A   26166.31021561 -.00000348  00000+0  00000+0 0  9999
2 49330   5.1087  61.1929 0049837 168.2979 273.8284  1.00271471  5342
SES-17                  
1 49332U 21095A   26166.17644036 -.00000268  00000+0  00000+0 0  9995
2 49332   0.0257  35.6593 0000963 102.1718 122.0513  1.00266066 17836
SYRACUSE 4A             
1 49333U 21095B   26166.26802794  .00000139  00000+0  00000+0 0  9999
2 49333   0.0173 354.1029 0001449  86.8750 324.5725  1.00269448 17922
QZS-1R (MICHIBIKI-1R)   
1 49336U 21096A   26165.64224595 -.00000276  00000+0  00000+0 0  9994
2 49336  37.4568  79.6218 0754676 271.7468 276.9403  1.00256090 16981
ZHONGXING-1D            
1 49505U 21114A   26166.28484134 -.00000333  00000+0  00000+0 0  9995
2 49505   0.0289 234.2894 0000677 352.0077 270.0072  1.00269678 16802
STPSAT-6                
1 49817U 21118A   26166.23694545 -.00000042  00000+0  00000+0 0  9996
2 49817   0.3161  85.4066 0001486 246.0259 265.7442  1.00273036 16557
EXPRESS AMU-7           
1 50001U 21123A   26166.33366041 -.00000240  00000+0  00000+0 0  9997
2 50001   0.0137 296.4484 0000708  44.6347 187.6540  1.00269588 16523
EXPRESS AMU-3           
1 50002U 21123B   26165.98286624  .00000000  00000+0  00000+0 0  9999
2 50002   0.0209 329.5636 0000188  62.3420 328.0956  1.00269503  7004
TIANLIAN 2-02           
1 50005U 21124A   26166.22162839 -.00000011  00000+0  00000+0 0  9995
2 50005   0.7953  86.1571 0001435 199.5632 228.5450  1.00271019 16602
TURKSAT 5B              
1 50212U 21126A   26165.62575792  .00000153  00000+0  00000+0 0  9992
2 50212   0.0678 339.8428 0003493  11.2535 179.1044  1.00273454 16274
INMARSAT 6-F1           
1 50319U 21128A   26165.99049677 -.00000166  00000+0  00000+0 0  9995
2 50319   0.0135 299.4891 0000388   1.1640  42.9719  1.00267498 16233
SHIYAN-12 01 (SY-12 01) 
1 50321U 21129A   26165.72373286  .00000073  00000+0  00000+0 0  9992
2 50321   3.6681  79.9422 0003245 284.4747 221.3020  1.00038769 16472
SHIYAN-12 02 (SY-12 02) 
1 50322U 21129B   26165.77301220 -.00000243  00000+0  00000+0 0  9997
2 50322   3.6679  79.9477 0002656  61.2901 127.1262  1.00489859 16479
TJS-9                   
1 50574U 21135A   26166.28622801 -.00000296  00000+0  00000+0 0  9999
2 50574   0.0431 252.6735 0004233 156.1869  94.9258  1.00268141 16411
USA 324                 
1 51280U 22006A   26157.08795008 -.00000058  00000+0  00000+0 0  9996
2 51280   0.7690  83.2777 0002840 165.6787 110.1567  1.00289779 16021
GOES 18                 
1 51850U 22021A   26166.20096488  .00000101  00000+0  00000+0 0  9994
2 51850   0.0096  95.6793 0000511  73.9917  29.1697  1.00272501  6578
ZHONGXING-6D            
1 52255U 22038A   26165.92145683 -.00000348  00000+0  00000+0 0  9996
2 52255   0.0154 287.1741 0000503 153.0902 279.7420  1.00273106 15400
NILESAT 301             
1 52817U 22061A   26166.25762788 -.00000054  00000+0  00000+0 0  9998
2 52817   0.0464   4.1943 0004616  50.0675 295.0363  1.00270325 14711
CMS-02 (GSAT-24)        
1 52903U 22067A   26165.99032344 -.00000160  00000+0  00000+0 0  9996
2 52903   0.0469 104.1391 0001392 261.6831 336.9792  1.00271112 14583
MEASAT 3D               
1 52904U 22067B   26166.02243157 -.00000237  00000+0  00000+0 0  9993
2 52904   0.0322 327.9366 0001449  39.8109 355.1280  1.00272591 14627
SES-22                  
1 52933U 22071A   26166.23148543  .00000108  00000+0  00000+0 0  9992
2 52933   0.0147 347.3849 0001242  83.4694 136.9860  1.00270213  7508
WFOV (USA 332)          
1 52940U 22073A   26166.28267466 -.00000361  00000+0  00000+0 0  9995
2 52940   3.7062  78.5520 0002175 236.0719 169.9223  1.00267393 14356
TIANLIAN 2-03           
1 53100U 22078A   26165.69079953  .00000078  00000+0  00000+0 0  9999
2 53100   0.6653  77.0045 0001547 327.4633 117.7944  1.00271787 14527
SBIRS GEO-6 (USA 336)   
1 53355U 22092A   26166.28657468 -.00000286  00000+0  00000+0 0  9998
2 53355   3.2609 317.4638 0001690 121.1210  67.1645  1.00270975 14217
EUTELSAT KONNECT VHTS   
1 53765U 22110A   26166.25953456  .00000020  00000+0  00000+0 0  9992
2 53765   0.0658 101.7306 0002345 325.6528 292.2867  1.00267917  6814
ZHONGXING-1E            
1 53813U 22112A   26165.98997677 -.00000144  00000+0  00000+0 0  9998
2 53813   0.0478 227.7410 0000877  86.6946  26.6312  1.00272410 13826
